start=new Date('2022-09-29T00:00:00.000Z').valueOf();
sats=[{"MEAN_ELEMENT_THEORY":"SGP4","EPHEMERIS_TYPE":"0","APOAPSIS":"438.769","COUNTRY_CODE":"US","OBJECT_NAME":"STARLINK-4458","ELEMENT_SET_NO":"999","CENTER_NAME":"EARTH","SEMIMAJOR_AXIS":"6815.526","MEAN_MOTION":"15.42956626","CLASSIFICATION_TYPE":"U","REV_AT_EPOCH":"130","LAUNCH_DATE":"2022-08-31","REF_FRAME":"TEME","BSTAR":"-0.03013700000000","TIME_SYSTEM":"UTC","TLE_LINE1":"1 53668U 22105W   22271.91667824 -.01205141  00000-0 -30137-1 0  9996","TLE_LINE2":"2 53668  97.6552 151.2016 0002022 135.1641 270.1598 15.42956626  1309","PERIOD":"93.327","FILE":"3586258","RA_OF_ASC_NODE":"151.2016","MEAN_ANOMALY":"270.1598","MEAN_MOTION_DOT":"-0.01205141","ECCENTRICITY":"0.00020220","MEAN_MOTION_DDOT":"0.0000000000000","GP_ID":"213768841","RCS_SIZE":"LARGE","PERIAPSIS":"436.013","EPOCH":"2022-09-28T22:00:00.999936","NORAD_CAT_ID":"53668","OBJECT_TYPE":"PAYLOAD","SITE":"AFWTR","INCLINATION":"97.6552","ARG_OF_PERICENTER":"135.1641","OBJECT_ID":"2022-105W","DECAY_DATE":null},{"NORAD_CAT_ID":"53669","EPOCH":"2022-09-28T22:00:00.999936","PERIAPSIS":"436.704","RCS_SIZE":"LARGE","GP_ID":"213768024","MEAN_MOTION_DDOT":"0.0000000000000","ECCENTRICITY":"0.00020030","MEAN_MOTION_DOT":"-0.01229982","MEAN_ANOMALY":"264.9115","FILE":"3586258","RA_OF_ASC_NODE":"151.2014","DECAY_DATE":null,"OBJECT_ID":"2022-105X","ARG_OF_PERICENTER":"136.1719","INCLINATION":"97.6553","SITE":"AFWTR","OBJECT_TYPE":"PAYLOAD","ELEMENT_SET_NO":"999","OBJECT_NAME":"STARLINK-4464","COUNTRY_CODE":"US","APOAPSIS":"439.435","EPHEMERIS_TYPE":"0","MEAN_ELEMENT_THEORY":"SGP4","TLE_LINE2":"2 53669  97.6553 151.2014 0002003 136.1719 264.9115 15.42726163  1302","PERIOD":"93.341","TLE_LINE1":"1 53669U 22105X   22271.91667824 -.01229982  00000-0 -31060-1 0  9992","BSTAR":"-0.03106000000000","TIME_SYSTEM":"UTC","REF_FRAME":"TEME","LAUNCH_DATE":"2022-08-31","REV_AT_EPOCH":"130","CLASSIFICATION_TYPE":"U","MEAN_MOTION":"15.42726163","SEMIMAJOR_AXIS":"6816.204","CENTER_NAME":"EARTH"},{"MEAN_ANOMALY":"268.3085","MEAN_MOTION_DOT":"-0.01144889","FILE":"3586258","RA_OF_ASC_NODE":"151.1992","MEAN_MOTION_DDOT":"0.0000000000000","ECCENTRICITY":"0.00020080","EPOCH":"2022-09-28T22:00:00.999936","NORAD_CAT_ID":"53670","GP_ID":"213768738","RCS_SIZE":"LARGE","PERIAPSIS":"435.309","OBJECT_TYPE":"PAYLOAD","INCLINATION":"97.6558","ARG_OF_PERICENTER":"141.6041","SITE":"AFWTR","DECAY_DATE":null,"OBJECT_ID":"2022-105Y","MEAN_ELEMENT_THEORY":"SGP4","APOAPSIS":"438.046","EPHEMERIS_TYPE":"0","COUNTRY_CODE":"US","OBJECT_NAME":"STARLINK-4459","ELEMENT_SET_NO":"999","SEMIMAJOR_AXIS":"6814.813","CENTER_NAME":"EARTH","CLASSIFICATION_TYPE":"U","MEAN_MOTION":"15.43198852","REV_AT_EPOCH":"130","BSTAR":"-0.02826100000000","TIME_SYSTEM":"UTC","LAUNCH_DATE":"2022-08-31","REF_FRAME":"TEME","TLE_LINE1":"1 53670U 22105Y   22271.91667824 -.01144889  00000-0 -28261-1 0  9995","PERIOD":"93.313","TLE_LINE2":"2 53670  97.6558 151.1992 0002008 141.6041 268.3085 15.43198852  1300"},{"PERIOD":"93.319","TLE_LINE2":"2 53671  97.6551 151.2008 0002071 140.8482 266.7338 15.43098304  1307","TLE_LINE1":"1 53671U 22105Z   22271.91667824 -.01209211  00000-0 -30104-1 0  9996","REF_FRAME":"TEME","LAUNCH_DATE":"2022-08-31","BSTAR":"-0.03010400000000","TIME_SYSTEM":"UTC","REV_AT_EPOCH":"130","MEAN_MOTION":"15.43098304","CLASSIFICATION_TYPE":"U","CENTER_NAME":"EARTH","SEMIMAJOR_AXIS":"6815.109","ELEMENT_SET_NO":"999","OBJECT_NAME":"STARLINK-4440","COUNTRY_CODE":"US","EPHEMERIS_TYPE":"0","APOAPSIS":"438.385","MEAN_ELEMENT_THEORY":"SGP4","OBJECT_ID":"2022-105Z","DECAY_DATE":null,"SITE":"AFWTR","ARG_OF_PERICENTER":"140.8482","INCLINATION":"97.6551","OBJECT_TYPE":"PAYLOAD","RCS_SIZE":"LARGE","PERIAPSIS":"435.562","GP_ID":"213767864","NORAD_CAT_ID":"53671","EPOCH":"2022-09-28T22:00:00.999936","MEAN_MOTION_DDOT":"0.0000000000000","ECCENTRICITY":"0.00020710","RA_OF_ASC_NODE":"151.2008","FILE":"3586258","MEAN_MOTION_DOT":"-0.01209211","MEAN_ANOMALY":"266.7338"},{"OBJECT_NAME":"STARLINK-4428","ELEMENT_SET_NO":"999","COUNTRY_CODE":"US","EPHEMERIS_TYPE":"0","APOAPSIS":"437.258","MEAN_ELEMENT_THEORY":"SGP4","TLE_LINE1":"1 53672U 22105AA  22271.91667824 -.01220160  00000-0 -30029-1 0  9999","TLE_LINE2":"2 53672  97.6552 151.1990 0002003 134.5082 279.4825 15.43465383  1306","PERIOD":"93.297","LAUNCH_DATE":"2022-08-31","REF_FRAME":"TEME","BSTAR":"-0.03002900000000","TIME_SYSTEM":"UTC","REV_AT_EPOCH":"130","CENTER_NAME":"EARTH","SEMIMAJOR_AXIS":"6814.028","CLASSIFICATION_TYPE":"U","MEAN_MOTION":"15.43465383","GP_ID":"213768604","PERIAPSIS":"434.528","RCS_SIZE":"LARGE","EPOCH":"2022-09-28T22:00:00.999936","NORAD_CAT_ID":"53672","MEAN_MOTION_DDOT":"0.0000000000000","ECCENTRICITY":"0.00020030","FILE":"3586258","RA_OF_ASC_NODE":"151.1990","MEAN_ANOMALY":"279.4825","MEAN_MOTION_DOT":"-0.01220160","OBJECT_ID":"2022-105AA","DECAY_DATE":null,"SITE":"AFWTR","INCLINATION":"97.6552","ARG_OF_PERICENTER":"134.5082","OBJECT_TYPE":"PAYLOAD"},{"MEAN_ELEMENT_THEORY":"SGP4","APOAPSIS":"418.597","EPHEMERIS_TYPE":"0","COUNTRY_CODE":"US","ELEMENT_SET_NO":"999","OBJECT_NAME":"STARLINK-4456","CLASSIFICATION_TYPE":"U","MEAN_MOTION":"15.49864661","SEMIMAJOR_AXIS":"6795.259","CENTER_NAME":"EARTH","REV_AT_EPOCH":"130","BSTAR":"-0.01668500000000","TIME_SYSTEM":"UTC","REF_FRAME":"TEME","LAUNCH_DATE":"2022-08-31","PERIOD":"92.911","TLE_LINE2":"2 53673  97.6554 151.3609 0002168 139.1023 244.4084 15.49864661  1303","TLE_LINE1":"1 53673U 22105AB  22271.91667824 -.00849063  00000-0 -16685-1 0  9990","MEAN_MOTION_DOT":"-0.00849063","MEAN_ANOMALY":"244.4084","RA_OF_ASC_NODE":"151.3609","FILE":"3586258","MEAN_MOTION_DDOT":"0.0000000000000","ECCENTRICITY":"0.00021680","NORAD_CAT_ID":"53673","EPOCH":"2022-09-28T22:00:00.999936","RCS_SIZE":"MEDIUM","PERIAPSIS":"415.650","GP_ID":"213768440","OBJECT_TYPE":"PAYLOAD","ARG_OF_PERICENTER":"139.1023","INCLINATION":"97.6554","SITE":"AFWTR","DECAY_DATE":null,"OBJECT_ID":"2022-105AB"},{"CLASSIFICATION_TYPE":"U","MEAN_MOTION":"15.43676349","CENTER_NAME":"EARTH","SEMIMAJOR_AXIS":"6813.407","REV_AT_EPOCH":"130","REF_FRAME":"TEME","LAUNCH_DATE":"2022-08-31","BSTAR":"-0.02988700000000","TIME_SYSTEM":"UTC","PERIOD":"93.284","TLE_LINE2":"2 53674  97.6553 151.1986 0001896 132.5152 285.0138 15.43676349  1305","TLE_LINE1":"1 53674U 22105AC  22271.91667824 -.01222801  00000-0 -29887-1 0  9995","MEAN_ELEMENT_THEORY":"SGP4","EPHEMERIS_TYPE":"0","APOAPSIS":"436.564","COUNTRY_CODE":"US","ELEMENT_SET_NO":"999","OBJECT_NAME":"STARLINK-4620","OBJECT_TYPE":"PAYLOAD","SITE":"AFWTR","ARG_OF_PERICENTER":"132.5152","INCLINATION":"97.6553","OBJECT_ID":"2022-105AC","DECAY_DATE":null,"FILE":"3586258","RA_OF_ASC_NODE":"151.1986","MEAN_MOTION_DOT":"-0.01222801","MEAN_ANOMALY":"285.0138","ECCENTRICITY":"0.00018960","MEAN_MOTION_DDOT":"0.0000000000000","PERIAPSIS":"433.980","RCS_SIZE":"LARGE","GP_ID":"213768976","NORAD_CAT_ID":"53674","EPOCH":"2022-09-28T22:00:00.999936"},{"CLASSIFICATION_TYPE":"U","MEAN_MOTION":"15.43377913","CENTER_NAME":"EARTH","SEMIMAJOR_AXIS":"6814.285","REV_AT_EPOCH":"130","TIME_SYSTEM":"UTC","BSTAR":"-0.03015000000000","REF_FRAME":"TEME","LAUNCH_DATE":"2022-08-31","TLE_LINE2":"2 53675  97.6552 151.1996 0002023 134.9405 277.4446 15.43377913  1308","PERIOD":"93.302","TLE_LINE1":"1 53675U 22105AD  22271.91667824 -.01221348  00000-0 -30150-1 0  9996","MEAN_ELEMENT_THEORY":"SGP4","APOAPSIS":"437.529","EPHEMERIS_TYPE":"0","COUNTRY_CODE":"US","ELEMENT_SET_NO":"999","OBJECT_NAME":"STARLINK-4617","OBJECT_TYPE":"PAYLOAD","ARG_OF_PERICENTER":"134.9405","INCLINATION":"97.6552","SITE":"AFWTR","DECAY_DATE":null,"OBJECT_ID":"2022-105AD","MEAN_MOTION_DOT":"-0.01221348","MEAN_ANOMALY":"277.4446","FILE":"3586258","RA_OF_ASC_NODE":"151.1996","ECCENTRICITY":"0.00020230","MEAN_MOTION_DDOT":"0.0000000000000","NORAD_CAT_ID":"53675","EPOCH":"2022-09-28T22:00:00.999936","RCS_SIZE":"LARGE","PERIAPSIS":"434.772","GP_ID":"213768280"},{"MEAN_ELEMENT_THEORY":"SGP4","EPHEMERIS_TYPE":"0","APOAPSIS":"435.903","COUNTRY_CODE":"US","OBJECT_NAME":"STARLINK-4621","ELEMENT_SET_NO":"999","CENTER_NAME":"EARTH","SEMIMAJOR_AXIS":"6812.796","MEAN_MOTION":"15.43883942","CLASSIFICATION_TYPE":"U","REV_AT_EPOCH":"130","LAUNCH_DATE":"2022-08-31","REF_FRAME":"TEME","TIME_SYSTEM":"UTC","BSTAR":"-0.02953600000000","TLE_LINE1":"1 53676U 22105AE  22271.91667824 -.01217472  00000-0 -29536-1 0  9996","PERIOD":"93.271","TLE_LINE2":"2 53676  97.6552 151.1968 0001822 125.5507 295.4930 15.43883942  1305","FILE":"3586258","RA_OF_ASC_NODE":"151.1968","MEAN_ANOMALY":"295.4930","MEAN_MOTION_DOT":"-0.01217472","MEAN_MOTION_DDOT":"0.0000000000000","ECCENTRICITY":"0.00018220","GP_ID":"213768842","RCS_SIZE":"LARGE","PERIAPSIS":"433.420","EPOCH":"2022-09-28T22:00:00.999936","NORAD_CAT_ID":"53676","OBJECT_TYPE":"PAYLOAD","SITE":"AFWTR","INCLINATION":"97.6552","ARG_OF_PERICENTER":"125.5507","OBJECT_ID":"2022-105AE","DECAY_DATE":null},{"OBJECT_TYPE":"PAYLOAD","DECAY_DATE":null,"OBJECT_ID":"2022-105AF","INCLINATION":"97.6552","ARG_OF_PERICENTER":"139.3764","SITE":"AFWTR","MEAN_MOTION_DDOT":"0.0000000000000","ECCENTRICITY":"0.00020920","MEAN_ANOMALY":"276.1809","MEAN_MOTION_DOT":"-0.01221412","FILE":"3586258","RA_OF_ASC_NODE":"151.1993","EPOCH":"2022-09-28T22:00:00.999936","NORAD_CAT_ID":"53677","GP_ID":"213768025","PERIAPSIS":"434.212","RCS_SIZE":"LARGE","REV_AT_EPOCH":"130","CENTER_NAME":"EARTH","SEMIMAJOR_AXIS":"6813.773","CLASSIFICATION_TYPE":"U","MEAN_MOTION":"15.43552049","TLE_LINE1":"1 53677U 22105AF  22271.91667824 -.01221412  00000-0 -29974-1 0  9992","PERIOD":"93.291","TLE_LINE2":"2 53677  97.6552 151.1993 0002092 139.3764 276.1809 15.43552049  1304","BSTAR":"-0.02997400000000","TIME_SYSTEM":"UTC","LAUNCH_DATE":"2022-08-31","REF_FRAME":"TEME","APOAPSIS":"437.063","EPHEMERIS_TYPE":"0","MEAN_ELEMENT_THEORY":"SGP4","OBJECT_NAME":"STARLINK-4579","ELEMENT_SET_NO":"999","COUNTRY_CODE":"US"}];
